LANDSAT 4               
1 13367U 82072A   09118.34808256  .00000106  00000-0  13213-4 0   839
2 13367  98.1891  30.5645 0020112 139.2565 221.0166 15.02200855437031
TDRS 1                  
1 13969U 83026B   09115.70330061 -.00000293  00000-0  10000-3 0  8553
2 13969  13.3032   9.6681 0022485 235.2218 173.1958  1.00277931 68475
LANDSAT 5               
1 14780U 84021A   09118.81913497  .00000026  00000-0  15883-4 0  6013
2 14780  98.2461 186.8526 0001667 256.7875 103.3130 14.57093459338190
ERBS                    
1 15354U 84108B   09117.77411155  .00000506  00000-0  41516-4 0   889
2 15354  56.9884   3.4295 0015095 354.8111   5.2752 15.15756501344419
TDRS 3                  
1 19548U 88091B   09117.63408284 -.00000190  00000-0  10000-3 0  2433
2 19548  11.7456  40.4233 0024650 316.9845 171.4792  1.00270882 62638
TDRS 4                  
1 19883U 89021B   09118.38981641 -.00000281  00000-0  10000-3 0  5697
2 19883  10.3965  52.3943 0002859 305.5975 312.8464  1.00278541246210
HST                     
1 20580U 90037B   09117.96807583  .00000309  00000-0  11049-4 0  3779
2 20580  28.4686  69.9976 0003856 130.7273 229.3650 15.00478370842301
TDRS 5                  
1 21639U 91054B   09117.61593906  .00000109  00000-0  10000-3 0  4345
2 21639   9.7456  56.2089 0009994 324.9696 248.8135  1.00279730 64958
UARS                    
1 21701U 91063B   09117.79207732  .00003840  00000-0  55617-4 0  6524
2 21701  56.9715 225.4857 0082647  76.0424 284.9808 15.54887083971385
TOPEX/POSEIDON          
1 22076U 92052A   09118.82534684 -.00000038  00000-0  10000-3 0  3466
2 22076  66.0316 173.2421 0007910 264.4855  95.5258 12.80946928781922
TDRS 6                  
1 22314U 93003B   09117.64012245  .00000095  00000-0  10000-3 0  4600
2 22314   9.0920  59.2846 0006551 326.9117 248.5848  1.00275029 59676
TDRS 7                  
1 23613U 95035B   09118.33109851  .00000119  00000-0  10000-3 0  5043
2 23613  10.9331  48.7395 0004545 351.2333 145.0187  1.00279812 50492
RXTE (XTE)              
1 23757U 95074A   09117.89452302  .00001061  00000-0  21831-4 0  8558
2 23757  22.9838  33.6959 0008604  76.8616 283.2876 15.27199092738071
TRMM                    
1 25063U 97074A   09118.84107018  .00003100  00000-0  43985-4 0   506
2 25063  34.9669 304.9175 0001105 295.1273  64.9312 15.55912094652403
KIKU-7 (ETS-VII)        
1 25064U 97074B   09118.84901412  .00000247  00000-0  11037-4 0  7911
2 25064  34.9602 343.4301 0002919 250.9136 109.1264 15.25122711633471
ISS (ZARYA)             
1 25544U 98067A   09118.82643640  .00009928  00000-0  77165-4 0  7594
2 25544  51.6400 200.0022 0008705 300.2632 162.4789 15.72479717598188
LANDSAT 7               
1 25682U 99020A   09118.78686583 -.00000008  00000-0  82517-5 0  6920
2 25682  98.2113 187.5083 0001536  79.6260 280.5107 14.57108506533883
FUSE 1                  
1 25791U 99035A   09115.55586092  .00000181  00000-0  38225-6 0  4223
2 25791  24.9843 290.5668 0010364  83.2787 276.8916 14.41792119518799
TERRA                   
1 25994U 99068A   09118.80633608  .00000062  00000-0  23701-4 0  6312
2 25994  98.2033 194.5467 0001273 115.4177 244.7151 14.57115823497967
TDRS 8                  
1 26388U 00034A   09116.97125318 -.00000215  00000-0  10000-3 0  9406
2 26388   1.2838 112.1933 0004384 291.0396 250.5524  1.00277585 32418
EO-1                    
1 26619U 00075A   09118.81974133 -.00000492  00000-0 -89075-4 0    15
2 26619  98.1448 186.9067 0010652 100.6016 259.6339 14.61840753449053
TIMED                   
1 26998U 01055B   09118.38940741  .00000074  00000-0  13166-4 0  2793
2 26998  74.0720  88.5006 0002448 222.6275 137.4698 14.84066639400130
TDRS 9                  
1 27389U 02011A   09116.29173947 -.00000271  00000-0  10000-3 0  3788
2 27389   2.4604 235.2202 0008403 152.1160 229.9318  1.00276492 27660
AQUA                    
1 27424U 02022A   09118.27914860  .00000079  00000-0  27509-4 0  2683
2 27424  98.1872  61.4850 0000742  42.2038 317.9244 14.57122635371492
TDRS 10                 
1 27566U 02055A   09113.86925610 -.00000256  00000-0  00000+0 0   847
2 27566   1.2284 280.5268 0003026 118.5577  84.9196  1.00266062 23466
SORCE                   
1 27651U 03004A   09117.73595540  .00000034  00000-0  19989-4 0  8877
2 27651  39.9968 231.8910 0027319 352.4338   7.6026 14.82171894338809
GALEX                   
1 27783U 03017A   09117.47549774  .00000221  00000-0  23934-4 0  6541
2 27783  28.9986 207.6717 0003877 310.4058  49.6167 14.59743151320364
GP-B                    
1 28230U 04014A   09117.66129273  .00000006  00000-0 -13500-5 0  4938
2 28230  89.9431 158.2992 0002395  63.1011 297.0459 14.75967527270321
AURA                    
1 28376U 04026A   09118.42216979  .00000056  00000-0  22498-4 0  4857
2 28376  98.1939  63.7873 0000637  80.7271 279.4011 14.57126987254568
SWIFT                   
1 28485U 04047A   09118.48194120  .00000491  00000-0  81005-5 0  2839
2 28485  20.5577 182.1387 0014633 157.3376 202.7675 14.92530523242230
THEMIS A                
1 30580U 07004A   09113.04519816 -.00000298  00000-0  00000-0 0  4136
2 30580   9.3416 251.9644 7732607 105.1454 344.0131  0.98121320  7700
THEMIS B                
1 30581U 07004B   09118.37500000 -.00000527  00000-0  00000-0 0  2473
2 30581  12.3873   1.0141 9136844 324.6721   0.4541  0.25129811  5930
THEMIS C                
1 30582U 07004C   09118.37500000 -.00000477  00000-0  00000-0 0  3930
2 30582   9.5117 344.6190 8571237 350.5539 359.8632  0.50421098  4709
THEMIS D                
1 30797U 07004D   09118.66666667 -.00000252  00000-0  00000+0 0  5495
2 30797   4.1993 250.4846 7498888 106.9835 353.9071  1.00309100  7253
THEMIS E                
1 30798U 07004E   09118.70833333 -.00000268  00000-0  00000+0 0  5696
2 30798   4.7060 250.4761 7499077 107.0004 353.7107  1.00323834  7395
C/NOFS                  
1 32765U 08017A   09117.81343028  .00001894  00000-0  49834-4 0  2814
2 32765  13.0032  90.1851 0314562 118.6327 244.5973 14.81244826 55832
AIM                     
1 31304U 07015A   09118.33502757 -.00000356  00000-0 -29457-4 0  6843
2 31304  97.7978 219.4758 0012632  30.6408 329.5542 14.92102484109365
FGRST (GLAST)           
1 33053U 08029A   09117.86417762  .00000279  00000-0  00000+0 0  2318
2 33053  25.5834 326.0940 0014155 280.0735  79.8215 15.04925541 48299
